IRIDIUM 112             
1 41925U 17003J   24320.47344425  .00000101  00000+0  28889-4 0  9996
2 41925  86.3949 330.1524 0002413 100.1880 259.9588 14.34214531410322
IRIDIUM 111             
1 41926U 17003K   24320.53053871  .00000362  00000+0  12212-3 0  9997
2 41926  86.3951 330.1862 0002400  91.1624 268.9847 14.34216441410311
IRIDIUM 113             
1 42803U 17039A   24320.44073861  .00000497  00000+0  17033-3 0  9997
2 42803  86.4024 203.9924 0002312  94.6186 265.5274 14.34211430388232
IRIDIUM 123             
1 42804U 17039B   24320.27291093  .00000368  00000+0  12451-3 0  9994
2 42804  86.3992 235.5108 0002365  78.6001 281.5460 14.34214885386978
IRIDIUM 120             
1 42805U 17039C   24320.43437502  .00000461  00000+0  15747-3 0  9995
2 42805  86.4014 203.8526 0002095  76.8457 283.2973 14.34213779388221
IRIDIUM 115             
1 42806U 17039D   24320.41408019  .00000915  00000+0  26599-3 0  9996
2 42806  86.4551 203.9084 0002430  76.6095 283.5376 14.43278739390788
IRIDIUM 118             
1 42807U 17039E   24320.51392812  .00000840  00000+0  29302-3 0  9993
2 42807  86.3993 235.4108 0002159  85.9909 274.1534 14.34214502387001
IRIDIUM 117             
1 42808U 17039F   24320.53294315  .00000583  00000+0  20121-3 0  9999
2 42808  86.3990 235.3659 0002375  80.3685 279.7779 14.34212680387039
